OBJECTID,Shape,ID_UNE,NOMBRE_SITIO,COD_COMUNA,COMUNA,BARRIO,DIRECCION,X_MAGNAMED,Y_MAGNAMED,LATITUD,LONGITUD
1,"(842824.9285000002, 1178661.2568)",WIFIMDE0006,Casa de Gobierno Santa Elena,90,90,2,CL 10 # 40 E - 44,842824.9285,1178661.2568,6.2097168,-75.49761963
2,"(842803.6964000001, 1186222.7378000002)",WIFIMDE0256,El Tambo,90,90,2,CL 86 - CR 42 E (Mini Glorieta Arvi),842803.6964,1186222.7378,6.27807617,-75.49780273
3,"(842472.9832000001, 1183704.4526)",WIFIMDE0179,@Medellín - Sapiencia,90,90,2,Centralidad Mazo,842472.9832,1183704.4526,6.25531006,-75.50079346
4,"(842371.3103, 1186492.7376)",ACP-2291181,Parque Arví - Centro Ambiental y Cultural Parque Arví,90,90,2,Parque Arví Santa Elena,842371.3103,1186492.7376,6.28051758,-75.50170898
5,"(842283.4759000001, 1186600.7483)",ACP-2151623,Plazoleta Estación Metrocable Parque Arví (exterior),90,90,2,Via a Piedras Blancas,842283.4759,1186600.7483,6.28149414,-75.50250244
6,"(841540.3874, 1186465.6387)",WIFIMDE0257,Fuerte de Carabineros,90,90,2,CL 86 - CR 31 E,841540.3874,1186465.6387,6.28027344,-75.50921631
7,"(839669.4783, 1181537.0043000001)",WIFIMDE0241,Placa Cubierta La Sierra,90,90,2,CL 56 B - CR 7 E,839669.4783,1181537.0043,6.23571777,-75.52612305
8,"(839419.5098, 1181449.2193999998)",WIFIMDE0227,Plazoleta Estación Metrocable Villa Sierra (exterior),08,08,1,CL 55 G - CR 3 E,839419.5098,1181449.2194,6.23492432,-75.52838135
9,"(838764.1948000002, 1181023.8442000002)",WIFIMDE0238,Parque Recreativo Barrio Jesús,09,09,1,CL 49 B - CR 5,838764.1948,1181023.8442,6.2310791,-75.53430176
10,"(838608.5867000001, 1184939.6036999999)",WIFIMDE0188,Ampliación La Honda,03,03,1,CL 71 B -  CR 24 BA ,838608.5867,1184939.6037,6.26647949,-75.53570557
11,"(838574.9881, 1181665.2094)",WIFIMDE0226,Plazoleta Estación Metrocable Las Torres (exterior),08,08,1,CR 11 - CL 53,838574.9881,1181665.2094,6.23687744,-75.53601074
12,"(838574.8084000001, 1184939.6019000001)",WIFIMDE0187,La Honda,03,03,1,CL 71 B -  CR 24 BA,838574.8084,1184939.6019,6.26647949,-75.53601074
13,"(838534.4361000002, 1181955.5143)",WIFIMDE0062,Ecoparque Esfuerzos de Paz – Las Tinajas,90,90,2,CR 14 # 56 A - 14,838534.4361,1181955.5143,6.23950195,-75.53637695
14,"(838500.4746000001, 1185337.926)",WIFIMDE0141,Centro de Salud La Cruz,03,03,1,CR 25  #  75C - 06,838500.4746,1185337.926,6.27008057,-75.53668213
15,"(838466.9366, 1180807.7853)",WIFIMDE0079,CAV Caunces,09,09,1,Km 1 Via Santa Elena – Barrio Buenos Aires ,838466.9366,1180807.7853,6.22912598,-75.5369873
16,"(838432.9031, 1185628.2294)",WIFIMDE0190,La Cruz,03,03,1,CL 79C -  CR 23 C,838432.9031,1185628.2294,6.27270508,-75.53729248
17,"(838311.1612000001, 1188416.5203)",WIFIMDE0069,Plazoleta Entre IE Antonio Derka y la IE Santo Domingo Savio,01,01,1,CR 28 - CR 107,838311.1612,1188416.5203,6.2979126,-75.53839111
18,"(838311.4786000001, 1182131.037)",WIFIMDE0066,Ecoparque Campo Santo de Villatina,08,08,1,CL 56 EE # 16 - 1,838311.4786,1182131.037,6.24108887,-75.53839111
19,"(838277.487, 1186377.6184999999)",WIFIMDE0189,Bello Oriente (Sector Palomar),90,90,2,CR 22 B - CL 86 B,838277.487,1186377.6185,6.27947998,-75.53869629
20,"(838257.4667, 1181401.8912)",WIFIMDE0019,Desarrollo Integral Las Estancias,08,08,1,CL 52 A - CR 10 A,838257.4667,1181401.8912,6.23449707,-75.53887939
21,"(838156.1327000001, 1181246.6058999998)",WIFIMDE0225,Estación Tranvía Oriente (interior),09,09,1,CL 50 - CL 12,838156.1327,1181246.6059,6.23309326,-75.53979492
22,"(838135.8446, 1181665.187)",WIFIMDE0240,Parque la Batea del barrio Villatina,08,08,1,CL 54 - CR 16,838135.8446,1181665.187,6.23687744,-75.53997803
23,"(838068.146, 1184656.0207)",WIFIMDE0260,Centralidad Versalles N° 2,03,03,1,CR 25 # 69 D - 35,838068.146,1184656.0207,6.26391602,-75.54058838
24,"(838013.9847, 1187201.2677000002)",WIFIMDE0139,Centro de Salud Carpinelo,01,01,1,CL 97 A # 24F - 90,838013.9847,1187201.2677,6.28692627,-75.54107666
25,"(837987.2084, 1181732.6935)",WIFIMDE0089,Centro de Salud Villatina,08,08,1,CL 54 #17 - 09,837987.2084,1181732.6935,6.23748779,-75.5413208
26,"(837966.6325, 1188639.2977999998)",WIFIMDE0311,Parque Fe y Alegría,01,01,1,CR 29 - CL 111,837966.6325,1188639.2978,6.29992676,-75.54150391
27,"(837946.6885, 1181361.3688)",WIFIMDE0168,Unidad Deportiva Alejandro Echavarría,09,09,1,CL 50 - CR 15,837946.6885,1181361.3688,6.23413086,-75.54168701
28,"(837912.6237, 1187883.1469999999)",WIFIMDE0218,Plazoleta Estación Metrocable Santo Domingo (exterior),01,01,1,CL 32 - CL 105,837912.6237,1187883.147,6.29309082,-75.54199219
29,"(837899.1122, 1187903.4004000002)",WIFIMDE0087,CEDEZO Santo Domingo,01,01,1,CL 106 # 32 - 33,837899.1122,1187903.4004,6.29327393,-75.54211426
30,"(837845.0742000001, 1187795.3769)",ACP-1879685,Casa de Justicia Santo Domingo,01,01,1,CR 32 # 102 A - 45,837845.0742,1187795.3769,6.29229736,-75.54260254
31,"(837798.0720000002, 1180936.0289)",WIFIMDE0314,Placa Polideportiva la Pastora,09,09,1,CL 45 A - CR 14 A,837798.072,1180936.0289,6.23028564,-75.54302979
32,"(837791.2345, 1182907.4155000001)",WIFIMDE0268,Plazoleta Trece de Noviembre,08,08,1,CR 23 - CL 56 HG,837791.2345,1182907.4155,6.24810791,-75.54309082
33,"(837777.5062000001, 1188146.443)",WIFIMDE0143,Centro de Salud Santo Domingo Savio,01,01,1,CR 33 # 107 B - 15,837777.5062,1188146.443,6.29547119,-75.54321289
34,"(837777.7591, 1182022.9914000002)",WIFIMDE0325,Cancha Polideportiva Cubierta La Libertad,08,08,1,CL 56 - CR 20,837777.7591,1182022.9914,6.2401123,-75.54321289
35,"(837757.2475, 1187970.9076)",WIFIMDE0228,Parque La Candelaria,01,01,1,CR 33 A - CL 106 A,837757.2475,1187970.9076,6.29388428,-75.543396
36,"(837744.0356000001, 1180625.4659000002)",WIFIMDE0245,Parque Caunces de Oriente,09,09,1,CL 44 AA - CR 10 A,837744.0356,1180625.4659,6.22747803,-75.54351807
37,"(837723.6585000001, 1183325.9949)",WIFIMDE0156,Centro de Salud Llanaditas,08,08,1,CL 58 #  21 - 62,837723.6585,1183325.9949,6.25189209,-75.54370117
38,"(837689.8870000001, 1183130.2052)",WIFIMDE0266,Plazoleta Colinas de Enciso parte alta,08,08,1,CL 57 C - CR 23,837689.887,1183130.2052,6.25012207,-75.54400635
39,"(837635.6638000001, 1187660.3418999999)",WIFIMDE0056,Unidad Deportiva Granizal,01,01,1,CLL 102 - CR33 E,837635.6638,1187660.3419,6.29107666,-75.54449463
40,"(837622.2446, 1185297.3778)",WIFIMDE0108,Unidad Deportiva El Raizal,03,03,1,CR 32 - CL 78,837622.2446,1185297.3778,6.26971436,-75.5446167
41,"(837581.7233, 1184966.5613)",WIFIMDE0154,Centro de Salud El Raizal,03,03,1,CR 32 # 71 A – 51,837581.7233,1184966.5613,6.26672363,-75.54498291
42,"(837568.1026000001, 1187862.8791)",WIFIMDE0259,Plazoleta Granizal,01,01,1,CR 36 B - CL 104,837568.1026,1187862.8791,6.29290771,-75.54510498
43,"(837500.5079000001, 1188990.3478)",WIFIMDE0229,Cancha de Futbol el Rompoy Popular N1,01,01,1,CL 120 - CR 42 D,837500.5079,1188990.3478,6.30310059,-75.54571533
44,"(837392.4592000002, 1187997.8993000002)",WIFIMDE0230,Parque Lineal La Herrera Santo Domingo,01,01,1,CR 37 B - CL 107,837392.4592,1187997.8993,6.29412842,-75.54669189
45,"(837304.6917, 1186445.0916)",WIFIMDE0101,Unidad Deportiva San Blas,03,03,1,CL 86 B # 36 AA - 45,837304.6917,1186445.0916,6.28009033,-75.54748535
46,"(837216.8421000001, 1187329.5123)",WIFIMDE0144,Centro de Salud San Blas,01,01,1,CL 89 # 38 - 61,837216.8421,1187329.5123,6.28808594,-75.54827881
47,"(837203.4115, 1184784.2625000002)",WIFIMDE0170,Parque Gaitán,03,03,1,CR 37 - CL 70,837203.4115,1184784.2625,6.26507568,-75.54840088
48,"(837203.3063000002, 1188126.1682000002)",WIFIMDE0131,Plazoleta Estación Metrocable Popular 1 (exterior),01,01,1,CL 106 entre CR 42B Y CR 42C,837203.3063,1188126.1682,6.29528809,-75.54840088
49,"(837189.7713000001, 1188902.5702)",WIFIMDE0301,Parque la Isla,01,01,1,CR 46 - CL 118,837189.7713,1188902.5702,6.30230713,-75.54852295
50,"(837115.5644000001, 1185560.6622000001)",WIFIMDE0286,Unidad Deportiva Santa Ines,03,03,1,CL 79 # 40 -10,837115.5644,1185560.6622,6.27209473,-75.54919433
51,"(837095.3997000001, 1182090.4808)",WIFIMDE0050,Unidad Deportiva Miraflores,09,09,1,CR 26 A # 49 A - 110,837095.3997,1182090.4808,6.24072266,-75.54937744
52,"(837095.2489000001, 1187201.2335)",WIFIMDE0029,Parque de Guadalupe,01,01,1,CL 95 A - CR 40,837095.2489,1187201.2335,6.28692627,-75.54937744
53,"(836838.6212000002, 1184102.3684999999)",WIFIMDE0103,Parque Principal Villa Hermosa,08,08,1,CR 39 A - CL 66,836838.6212,1184102.3685,6.25891113,-75.55169678
54,"(836804.8771000002, 1182684.5894)",WIFIMDE0315,Cancha Polideportiva Sucre,08,08,1,CR 32 - CL 56,836804.8771,1182684.5894,6.24609375,-75.55200195
55,"(836737.2279, 1186532.8429)",WIFIMDE0235,Cancha Sintética Las Esmeraldas,03,03,1,CL 88 B - CR 45,836737.2279,1186532.8429,6.28088379,-75.5526123
56,"(836716.902, 1189098.3458)",WIFIMDE0096,Centro de Salud Pablo VI,02,02,1,CL 120 #  50 - 11,836716.902,1189098.3458,6.30407715,-75.55279541
57,"(836683.2310000001, 1184433.1798)",WIFIMDE0075,UPSS Manrique,03,03,1,CL 66 E # 42 - 51  ,836683.231,1184433.1798,6.26190186,-75.55310059
58,"(836662.8767000001, 1188369.2016)",WIFIMDE0233,Coliseo Andalucía,02,02,1,CR 49 - CL 107,836662.8767,1188369.2016,6.29748535,-75.55328369
59,"(836629.1833, 1184520.9457)",WIFIMDE0088,CEDEZO Manrique,03,03,1,CR 43 #  66 E - 41 ,836629.1833,1184520.9457,6.26269531,-75.55358887
60,"(836615.5949, 1188126.1529)",WIFIMDE0007,Casa de Justicia Villa del Socorro,02,02,1,CL 104 B # 48 - 60,836615.5949,1188126.1529,6.29528809,-75.55371094
61,"(836615.5949, 1188126.1529)",WIFIMDE0234,CEDEZO Santa Cruz,02,02,1,CL 104 B # 48 - 60,836615.5949,1188126.1529,6.29528809,-75.55371094
62,"(836615.5954, 1188105.8989)",WIFIMDE0232,Cancha Sintética Villa del Socorro,02,02,1,CL 104 B # 48 - 38,836615.5954,1188105.8989,6.29510498,-75.55371094
63,"(836595.4536000001, 1182178.2352999998)",WIFIMDE0294,Estación tranvia Buenos Aires (interior plataforma abordaje),09,09,1,CL 49 - CR 31,836595.4536,1182178.2353,6.24151611,-75.55389404
64,"(836561.6521000001, 1183238.1927)",WIFIMDE0090,CEDEZO La Ladera,08,08,1,CL 59 A #  36 - 30,836561.6521,1183238.1927,6.25109863,-75.55419922
65,"(836541.2634000002, 1189280.6278)",WIFIMDE0269,Cancha de Futbol La Frontera,02,02,1,CR 51 A - CL 121,836541.2634,1189280.6278,6.3057251,-75.55438232
66,"(836507.6381000002, 1181536.8577)",WIFIMDE0038,Parque La Milagrosa,09,09,1,CR 29 - CL 42,836507.6381,1181536.8577,6.23571777,-75.5546875
67,"(836494.0297, 1186559.8431000002)",WIFIMDE0009,Casa de la Cultura Manrique,04,04,1,CR 45 # 72 – 62,836494.0297,1186559.8431,6.28112793,-75.55480957
68,"(836473.7912, 1185074.5512)",WIFIMDE0224,Estación Metroplus Gardel (exterior),03,03,1,CRA 45 - CL 72,836473.7912,1185074.5512,6.26770019,-75.55499268
69,"(836473.7168, 1189010.5736)",WIFIMDE0186,Parque Pablo VI,02,02,1,CL 112 - CR 51 A,836473.7168,1189010.5736,6.30328369,-75.55499268
70,"(836453.4808000003, 1187417.2604999999)",WIFIMDE0231,Cancha de Fútbol en Grama Sintética San Nicolás,01,01,1,CR 48 - CL 97,836453.4808,1187417.2605,6.28887939,-75.55517578
71,"(836352.2198000001, 1183258.4427)",WIFIMDE0291,Parque Obrero,10,10,1,CL 58 A - CR 39 A,836352.2198,1183258.4427,6.25128174,-75.55609131
72,"(836338.6459, 1187018.9304)",WIFIMDE0024,Parque Aranjuez,04,04,1,CL 93 - CR 49,836338.6459,1187018.9304,6.28527832,-75.55621338
73,"(836217.1097, 1182752.0913)",WIFIMDE0026,Parque Bicentenario,10,10,1,CL 51 - CR 38,836217.1097,1182752.0913,6.2467041,-75.55731201
74,"(836217.1072000001, 1182927.6257000002)",WIFIMDE0064,Parque de Boston,10,10,1,CL 54 - CR 38,836217.1072,1182927.6257,6.24829102,-75.55731201
75,"(836217.0584000001, 1186316.7907)",WIFIMDE0302,Parque la Piñuela,04,04,1,CL 86 - CR 49,836217.0584,1186316.7907,6.27893066,-75.55731201
76,"(836142.7590000001, 1185452.6202000002)",WIFIMDE0104,Parque Principal Campo Valdés (El Calvario),04,04,1,CL 78 - CR 48 A,836142.759,1185452.6202,6.27111816,-75.5579834
77,"(836129.2053, 1188727.0125)",WIFIMDE0217,Estación Metro Acevedo (interior),05,05,1,CR 63 # 103 G - 86,836129.2053,1188727.0125,6.30072022,-75.55810547
78,"(836095.453, 1186802.8845000002)",ACP-2076500,Inspección Aranjuez 4A,04,04,1,CL 92 # 50 - 53,836095.453,1186802.8845,6.2833252,-75.55841064
79,"(836095.4169, 1189719.4568000003)",WIFIMDE0326,Placa polideportiva La Playita,05,05,1,CL 114 # 63 -59,836095.4169,1189719.4568,6.30969238,-75.55841064
80,"(836054.9399000002, 1185121.8042000001)",WIFIMDE0160,Hospital Infantil Concejo de Medellín,04,04,1,CL 72 A # 48A - 20,836054.9399,1185121.8042,6.26812744,-75.55877686
81,"(836021.1828000001, 1183190.9250000003)",WIFIMDE0165,Inspección 10B,10,10,1,CL 56 # 41 - 06,836021.1828,1183190.925,6.25067139,-75.55908203
82,"(835940.1158000001, 1182839.8552)",WIFIMDE0239,La Playa (Teatro Pablo Tobón),10,10,1,CL 52 (Av La Playa) - CR 40,835940.1158,1182839.8552,6.24749756,-75.55981445
83,"(835899.5349000002, 1187903.3484)",WIFIMDE0083,UPSS Santa Cruz,02,02,1,CR 51 A # 100 - 80 ,835899.5349,1187903.3484,6.29327393,-75.56018066
84,"(835872.5663, 1181692.1294)",WIFIMDE0319,Parque el Salvador,09,09,1,CL 40 - CR 35,835872.5663,1181692.1294,6.23712158,-75.5604248
85,"(835764.4762000003, 1180672.6785)",WIFIMDE0288,Cancha la Esmeralda (Loreto),09,09,1,CL 30 - CR 32 A,835764.4762,1180672.6785,6.22790527,-75.56140137
86,"(835744.1509, 1189699.1996)",WIFIMDE0320,Parque las Brisas,05,05,1,CR 64 CC - CL 115,835744.1509,1189699.1996,6.30950928,-75.56158447
87,"(835744.1956000001, 1182617.0599)",WIFIMDE0221,Estación Tranvía Pabellón del Agua EPM (exterior),10,10,1,CL 49 - CR 41,835744.1956,1182617.0599,6.2454834,-75.56158447
88,"(835710.421, 1181712.3821999999)",WIFIMDE0174,Inspección 9B,09,09,1,CR 36 A # 39 - 26,835710.421,1181712.3822,6.23730469,-75.56188965
89,"(835696.8993000002, 1183460.9752000002)",WIFIMDE0172,Por mis derechos - Por una Vida Más Digna (Oficina La Candelaria),10,10,1,CL 57 # 45 - 129,835696.8993,1183460.9752,6.25311279,-75.56201172
90,"(835696.9015000002, 1183062.6471000002)",WIFIMDE0065,Parque del Periodista,10,10,1,CR 43 - CL 53 ,835696.9015,1183062.6471,6.24951172,-75.56201172
91,"(835696.8916000001, 1184878.7533)",WIFIMDE0192,Ampliación Museo Cementerio San Pedro,04,04,1,CR 51 #  68 - 68  (San Pedro),835696.8916,1184878.7533,6.26593017,-75.56201172
92,"(835676.6174000001, 1186269.5262000002)",WIFIMDE0163,Museo Pedro Nel Gómez,04,04,1,CR 51 B # 85 - 24,835676.6174,1186269.5262,6.27850342,-75.56219482
93,"(835676.639, 1182063.4508)",WIFIMDE0196,Parque Cerro El Cristo Salvador,09,09,1,CR 39 - CL 40 C,835676.639,1182063.4508,6.24047851,-75.56219482
94,"(835656.3432, 1187862.8388)",WIFIMDE0297,Barrio Sinaí,02,02,1,CR 54 # 99 - 05,835656.3432,1187862.8388,6.29290772,-75.56237793
95,"(835588.8091000001, 1182549.5459000003)",WIFIMDE0197,Registraduría (Torres de Bomboná),10,10,1,CL 48 # 42 - 21 (Oficina 201),835588.8091,1182549.5459,6.24487305,-75.56298828
96,"(835575.2935, 1183636.5091)",ACP-2077752,Centro de Diversidad Sexual,10,10,1,CR 48 #  57 - 21,835575.2935,1183636.5091,6.25469971,-75.56311035
97,"(835534.7558000002, 1184676.213)",WIFIMDE0223,Estación Metroplus Hospital (interior),04,04,1,CL 67 - CR 51,835534.7558,1184676.213,6.26409912,-75.56347656
98,"(835521.2425000002, 1185425.6099999999)",WIFIMDE0022,Jardín Botánico,04,04,1,CL 73 # 51 D - 14,835521.2425,1185425.61,6.27087402,-75.56359863
99,"(835473.955, 1184345.3980999999)",WIFIMDE0001,Centro de Integración Afrocolombiano,10,10,1,CR 50 D # 62 - 95 (Prado Centro),835473.955,1184345.3981,6.2611084,-75.56402588
100,"(835453.6811000002, 1189496.6587)",WIFIMDE0313,Cancha de Fútbol Boyacá,05,05,1,CL 112 B - CR 65 A,835453.6811,1189496.6587,6.30767822,-75.56420898
101,"(835453.689, 1183413.7152)",WIFIMDE0027,Parque Bolívar,10,10,1,CL 48 - CL 55,835453.689,1183413.7152,6.25268555,-75.56420898
102,"(835419.9078, 1186046.7318000002)",WIFIMDE0011,Centro Cultural Moravia,04,04,1,CL 82 A # 52 - 25 Carabobo (sector Cuatro Bocas),835419.9078,1186046.7318,6.27648926,-75.56451416
103,"(835413.1543000002, 1182704.826)",WIFIMDE0068,Plazuela San Ignacio,10,10,1,CR 44 - CL 49 ,835413.1543,1182704.826,6.24627686,-75.5645752
104,"(835365.8643, 1189942.2461)",WIFIMDE0264,Placa Polideportiva Brisas del Norte,05,05,1,CR 67 B - CL 119 A,835365.8643,1189942.2461,6.31170654,-75.56500244
105,"(835311.8154, 1182839.8525)",WIFIMDE0324,Pasaje La Bastilla x Av La Playa,10,10,1,CR 48 - CL 52,835311.8154,1182839.8525,6.24749756,-75.56549072
106,"(835298.3057, 1184365.652)",ACP-2074818,Parque de la Vida (Centro),10,10,1,CR 51 D # 62 - 42,835298.3057,1184365.652,6.2612915,-75.56561279
107,"(835298.3071000003, 1185364.848)",WIFIMDE0034,Parque Explora,04,04,1,CR 52 # 73 -75,835298.3071,1185364.848,6.27032471,-75.56561279
108,"(835298.3098000002, 1187329.4836)",WIFIMDE0081,Unidad Permanente de Justicia (UPJ),05,05,1,CR 52 # 71 - 84 ,835298.3098,1187329.4836,6.28808594,-75.56561279
109,"(835264.5246000004, 1183082.9002999999)",WIFIMDE0318,Plazoleta Iglesia San José,10,10,1,CL 49 - CR 46,835264.5246,1183082.9003,6.24969482,-75.56591797
110,"(835264.5285, 1185142.0542000001)",WIFIMDE0030,Parque de Los deseos,04,04,1,CL 71 # 52 - 30,835264.5285,1185142.0542,6.26831055,-75.56591797
111,"(835257.7731, 1185270.3295)",WIFIMDE0209,Estación Metro Universidad (interior torniquete acceso parque Explora),04,04,1,CL 73 - CR 53,835257.7731,1185270.3295,6.26947021,-75.565979
112,"(835223.9864000003, 1182043.1964)",WIFIMDE0071,Centro de Salud San Lorenzo,10,10,1,CL 41 # 42 A - 68  ,835223.9864,1182043.1964,6.24029541,-75.56628418
113,"(835224.0036000002, 1188524.4681000002)",WIFIMDE0265,Parque del Viento - Cedezo Castilla,05,05,1,CR 65 - CL 103 E,835224.0036,1188524.4681,6.29888916,-75.56628418
114,"(835176.6974, 1182947.8739999998)",ACP-2076034,Cedezo Pasaje La Bastilla,10,10,1,CR 48 # 48 - 48,835176.6974,1182947.874,6.24847412,-75.56671143
115,"(835176.7098, 1186512.5735)",WIFIMDE0262,Placa Polideportiva Moravia,04,04,1,CR 58 - CL 87 AA,835176.7098,1186512.5735,6.28070068,-75.56671143
116,"(835176.6963, 1182617.0591000002)",WIFIMDE0316,Centro Comercial Bazar San Antonio,10,10,1,CL 47 # 45 - 87,835176.6963,1182617.0591,6.2454834,-75.56671143
117,"(835156.4398, 1185580.8908000002)",WIFIMDE0039,Parque Norte,04,04,1,CR 53 # 76 - 115,835156.4398,1185580.8908,6.27227783,-75.56689453
118,"(835122.6705, 1187552.2778)",WIFIMDE0102,Unidad Deportiva Tricentenario,05,05,1,CR 64 - CR 63 C,835122.6705,1187552.2778,6.2901001,-75.56719971
119,"(835109.1677, 1189253.6116)",WIFIMDE0322,Parque las Iguanas,05,05,1,CR 67 - CL 106 C,835109.1677,1189253.6116,6.30548096,-75.56732178
120,"(835088.8694, 1182684.5728)",WIFIMDE0032,Parque San Antonio,10,10,1,CL 47 - CR 46,835088.8694,1182684.5728,6.24609375,-75.56750488
121,"(835068.6044, 1183217.9275)",WIFIMDE0295,Estación Parque Berrio 2 (interior acceso torniquete Norte),10,10,1,CL 51 D - CR 50,835068.6044,1183217.9275,6.25091553,-75.56768799
122,"(835055.1241, 1188855.2837)",WIFIMDE0298,Estación Metrocable Sena Pedregal,05,05,1,CR 67 # 104 - 49,835055.1241,1188855.2837,6.30187988,-75.56781006
123,"(835055.1090000006, 1186161.5052)",WIFIMDE0261,Morro de Moravia,04,04,1,CR 60 # 82 - 59,835055.109,1186161.5052,6.27752686,-75.56781006
124,"(835055.0920000004, 1183103.1551)",WIFIMDE0025,Parque Berrío,10,10,1,CL 51 - CR 50,835055.092,1183103.1551,6.24987793,-75.56781006
125,"(835034.8629, 1189631.6861999999)",WIFIMDE0035,Parque Florencia,05,05,1,CL 113 - CR 70,835034.8629,1189631.6862,6.30889893,-75.56799317
126,"(835034.854, 1188105.8869)",WIFIMDE0151,Mascerca Castilla,05,05,1,CR 65 #  100 - 123,835034.854,1188105.8869,6.29510498,-75.56799316
127,"(835034.7977, 1178573.0163)",WIFIMDE0175,Parque Lleras,14,14,1,CR 40 - CL 9,835034.7977,1178573.0163,6.20892334,-75.56799316
128,"(835001.0449000002, 1183103.1554)",WIFIMDE0210,Estación Metro Parque Berrío (acceso sur),10,10,1,CL 51 D - CR 50,835001.0449,1183103.1554,6.24987793,-75.56829834
129,"(834987.5531, 1186066.987)",WIFIMDE0206,Plazoleta Estación Metro Caribe (exterior cancha Polideportiva Moravia Caribe),04,04,1,CR 52 - CL 67,834987.5531,1186066.987,6.27667236,-75.56842041
130,"(834987.5348, 1183346.2031999999)",WIFIMDE0135,Plaza Botero (Museo de Antioquia),10,10,1,CL 53 - CR 52 (Plazoleta Botero),834987.5348,1183346.2032,6.2520752,-75.56842041
131,"(834967.2995, 1187903.3475000001)",WIFIMDE0037,Parque Juanes de la Paz,05,05,1,CR 65 #  98 - 50,834967.2995,1187903.3475,6.29327393,-75.56860352
132,"(834967.3004, 1188038.3739999998)",WIFIMDE0084,UPSS Castilla,05,05,1,CR 65 # 98 - 115,834967.3004,1188038.374,6.29449463,-75.56860352
133,"(834953.771, 1185472.8706999999)",WIFIMDE0263,Parque Norte Zona Infantil,04,04,1,CR 53 # 76 - 115,834953.771,1185472.8707,6.27130127,-75.56872559
134,"(834892.9779, 1186357.2947000002)",WIFIMDE0207,Estación Metro Caribe Costado Norte (exterior torniquetes),05,05,1,CR 64 - CL 78,834892.9779,1186357.2947,6.27929688,-75.5692749
135,"(834892.9517000006, 1183217.9287)",WIFIMDE0323,Pasaje Carabobo (Frente Iglesia Veracruz),10,10,1,CR 52 - CL 51 A,834892.9517,1183217.9287,6.25091553,-75.5692749
136,"(834879.4361, 1182772.3414000003)",WIFIMDE0176,Estación Tranvía San Antonio - Plazoleta de Abordaje (exterior),10,10,1,CR 50 - CL 46,834879.4361,1182772.3414,6.24688721,-75.56939697
137,"(834865.9541, 1186161.5065000001)",WIFIMDE0208,Estación Metro Caribe Costado Sur (exterior torniquetes),05,05,1,CR 64 - CL 78,834865.9541,1186161.5065,6.27752686,-75.56951904
138,"(834865.9669, 1187599.5387)",WIFIMDE0080,Cav Palermo Parque Juanes de la Paz ,05,05,1,CR 65 # 96 - 10,834865.9669,1187599.5387,6.29052734,-75.56951904
139,"(834859.1688, 1182819.6008000001)",WIFIMDE0293,"Estación San Antonio 2 (interior plataforma abordaje linea A, hacia la Estrella)",10,10,1,CL 46 - CR 51,834859.1688,1182819.6008,6.24731445,-75.56958008
140,"(834825.3891, 1182819.6011)",WIFIMDE0292,"Estación San Antonio 1 (interior plataforma abordaje linea A, hacia Niquia)",10,10,1,CL 46 - CR 51,834825.3891,1182819.6011,6.24731445,-75.56988525
141,"(834778.0529, 1178458.2458000001)",WIFIMDE0303,Parque La Presidenta,14,14,1,CR 43 A - entre CL 7 & 8 ,834778.0529,1178458.2458,6.20788574,-75.5703125
142,"(834724.0154000005, 1179700.4902)",WIFIMDE0204,Canal Parque Telemedellín,14,14,1,CR 43 F # 18 - 60,834724.0154,1179700.4902,6.21911621,-75.57080078
143,"(834676.8022, 1186404.5562)",WIFIMDE0077,Terminal del Norte,05,05,1,CR 64 C # 78 - 580 ,834676.8022,1186404.5562,6.27972412,-75.57122803
144,"(834670.0256000005, 1184676.2171)",WIFIMDE0173,Aula Ambiental Paseo del Río,10,10,1,CR 62 # 65 - 01,834670.0256,1184676.2171,6.26409912,-75.57128906
145,"(834669.9534000006, 1178728.3)",ACP-2120652,Parque El Poblado,14,14,1,CR 43 A - CL 10,834669.9534,1178728.3,6.21032715,-75.57128906
146,"(834656.5668, 1188902.5466)",WIFIMDE0076,Teatro al Aire Libre y Parque El Pedregal,06,06,1,CL 105 # 72 A - 25,834656.5668,1188902.5466,6.30230713,-75.57141113
147,"(834636.2935, 1188301.6789000002)",ACP-2009605,Unidad Deportiva José René Higuita,05,05,1,CR 69 - CL 101,834636.2935,1188301.6789,6.296875,-75.57159424
148,"(834615.9388, 1181536.8517999998)",WIFIMDE0243,Perpetuo Socorro,10,10,1,CR 46 - CL 35,834615.9388,1181536.8518,6.23571777,-75.57177734
149,"(834602.3909, 1178836.3221)",WIFIMDE0177,Mascerca Poblado,14,14,1,CR 43 D # 11 - 02,834602.3909,1178836.3221,6.21130371,-75.57189941
150,"(834534.8820000006, 1182644.0702)",WIFIMDE0044,Plazoleta de Cisneros (parque luces),10,10,1,CL 45 - CR 53,834534.882,1182644.0702,6.24572754,-75.57250977
151,"(834514.7126, 1189253.6173999999)",WIFIMDE0181,Parque deportivo y Recreativo La Tinajita,06,06,1,CR 76 # 105 - 15,834514.7126,1189253.6174,6.30548096,-75.57269287
152,"(834480.8164, 1181469.3405)",WIFIMDE0073,Hospital General de Medellín,10,10,1,CR 48 # 32 - 102  ,834480.8164,1181469.3405,6.23510742,-75.57299805
153,"(834480.8997, 1186863.6488)",WIFIMDE0042,Pista de Patinaje Francisco Antonio Zea,05,05,1,CL 91A - CR 67,834480.8997,1186863.6488,6.28387451,-75.57299805
154,"(834480.8778, 1185452.6221)",WIFIMDE0046,Secretaría de Movilidad (Oficina Castilla),05,05,1,CR 64 C # 72 - 58,834480.8778,1185452.6221,6.27111816,-75.57299805
155,"(834467.3216, 1182576.5579)",WIFIMDE0045,Plazoleta La Alpujarra (Centro Administrativo),10,10,1,CL 44 # 52 - 165,834467.3216,1182576.5579,6.24511719,-75.57312012
156,"(834447.0128000005, 1180011.0548999999)",WIFIMDE0289,Parque Lineal Ciudad Del Río,14,14,1,CL 19 - CR 43 G,834447.0128,1180011.0549,6.22192383,-75.57330322
157,"(834447.0526, 1182509.045)",WIFIMDE0072,Centro de Servicio al Ciudadano (CAM),10,10,1,Sótano Centro administrativo la Alpujarra,834447.0526,1182509.045,6.24450684,-75.57330322
158,"(834426.7851000002, 1182529.2993)",WIFIMDE0021,Banco de los Pobres,10,10,1,Sótano Centro administrativo la Alpujarra,834426.7851,1182529.2993,6.24468994,-75.57348633
159,"(834426.7854, 1182549.5533)",WIFIMDE0047,Tesorería Municipal (Oficina CAM),10,10,1,Edificio Alcaldía - Piso 1,834426.7854,1182549.5533,6.24487305,-75.57348633
160,"(834413.2945, 1183812.0512)",WIFIMDE0317,Centro Comercial Medellín,10,10,1,CR 57 # 54 -71,834413.2945,1183812.0512,6.25628662,-75.5736084
161,"(834413.3751, 1188659.5023)",WIFIMDE0321,Parque los Jubilados,06,06,1,CL 102 - CR 74,834413.3751,1188659.5023,6.30010986,-75.5736084
162,"(834393.0042000003, 1182461.7866)",WIFIMDE0018,Concejo de Medellín (Recinto),10,10,1,"CL 44 #  52 - 165 (Alpujarra, Ed. Concejo)",834393.0042,1182461.7866,6.24407959,-75.5737915
163,"(834379.6001000002, 1188727.0162)",WIFIMDE0133,Casa de La Cultura Pedregal,06,06,1,CL 103 # 74 A - 03,834379.6001,1188727.0162,6.30072021,-75.57391357
164,"(834359.1986000004, 1180983.2471)",WIFIMDE0211,Plazoleta Estación Metro Industriales (exterior Punto Clave),14,14,1,CR 48 - CL 29 (CC Punto Clave),834359.1986,1180983.2471,6.23071289,-75.57409668
165,"(834305.1356, 1180227.0997000001)",WIFIMDE0067,Plazoleta Y Parque Cultural Del Mamm,14,14,1,CR 44 - CL 20,834305.1356,1180227.0997,6.22387695,-75.57458496
166,"(834183.6572, 1186735.3791)",WIFIMDE0095,Centro de Salud Alfonso López,05,05,1,CR 70 # 90 - 13,834183.6572,1186735.3791,6.28271484,-75.57568359
167,"(834149.8841, 1186931.1682000002)",WIFIMDE0299,Parque Alfonso López,05,05,1,CL 92 - CR 71,834149.8841,1186931.1682,6.28448486,-75.57598877
168,"(834116.1542000006, 1189098.3442000002)",WIFIMDE0328,Estación Metrocable Doce de Octubre,06,06,1,,834116.1542,1189098.3442,6.30407715,-75.57629394
169,"(834095.7385, 1182306.5119000003)",WIFIMDE0195,Plaza Mayor - Plazoleta Interamericana,10,10,1,CL 41  # 55 - 80,834095.7385,1182306.5119,6.24267578,-75.57647705
170,"(834082.1961, 1180935.9932)",WIFIMDE0222,Estación Metroplus Industriales L1 (interior plataforma abordaje),15,15,1,CR 52 - CL 30,834082.1961,1180935.9932,6.23028564,-75.57659912
171,"(834068.8398, 1187862.8528)",WIFIMDE0237,Cancha Sintética La Maracaná,06,06,1,CR 73A - CL 96,834068.8398,1187862.8528,6.29290772,-75.57672119
172,"(834068.7206000001, 1182576.5655)",WIFIMDE0031,Parque de Los Pies descalzos,10,10,1,CR 58 # 42 - 125,834068.7206,1182576.5655,6.24511719,-75.57672119
173,"(834061.9276000004, 1180935.9938)",WIFIMDE0127,Plazoleta Estación Metroplus Industriales (exterior),15,15,1,CR 52 - CL 30 ,834061.9276,1180935.9938,6.23028564,-75.57678223
174,"(834048.3716000002, 1179011.8665)",WIFIMDE0132,Plazoleta Estación Metro Poblado (exterior),14,14,1,Av Regional - CR 48 C (Acceso PJIC),834048.3716,1179011.8665,6.21289062,-75.5769043
175,"(833974.2958, 1189125.3527000002)",WIFIMDE0051,Unidad Deportiva Doce de Octubre,06,06,1,CR 78 B - CL 104 B,833974.2958,1189125.3527,6.30432129,-75.57757568
176,"(833974.2926, 1188990.3262)",WIFIMDE0161,Inspección N°6 Doce de Octubre,06,06,1,CL 103 # 77 B - 56,833974.2926,1188990.3262,6.30310059,-75.57757568
177,"(833940.2704, 1179032.1231)",WIFIMDE0212,Estación Metro Poblado,14,14,1,Av Regional - CL 10,833940.2704,1179032.1231,6.21307373,-75.57788086
178,"(833926.838, 1182266.0079)",WIFIMDE0305,Parques del Río 1B Sur (Frente teatro Metropolitano),10,10,1,CR 62 - CL 41,833926.838,1182266.0079,6.24230957,-75.57800293
179,"(833913.1843000001, 1176601.6468000002)",WIFIMDE0284,Parque Memorial Inflexión,14,14,1,CR 44 - CL 15 Sur,833913.1843,1176601.6468,6.19110107,-75.578125
180,"(833893.2279, 1188902.561)",WIFIMDE0082,UPSS Doce de Octubre,06,06,1,CL 101 BB # 78 - 10,833893.2279,1188902.561,6.30230713,-75.57830811
181,"(833872.8318, 1183879.5759)",WIFIMDE0106,Plazuela Carlos E. Restrepo,11,11,1,CR 64 B entre CL 53 Y CL 52,833872.8318,1183879.5759,6.25689697,-75.57849121
182,"(833818.7505000003, 1182576.5717)",WIFIMDE0306,Parques del Río 1B Norte (Frente edificio Inteligente),10,10,1,CR 62 - CL 42,833818.7505,1182576.5717,6.24511719,-75.57897949
183,"(833805.2339000001, 1182401.0376)",WIFIMDE0283,Parques del Río 1A Centro,11,11,1,CR 63 A - CL 42 C,833805.2339,1182401.0376,6.24353027,-75.57910156
184,"(833670.1476000004, 1183528.5126)",WIFIMDE0126,Parque Amisura,11,11,1,CR 64B - CL 49A,833670.1476,1183528.5126,6.25372314,-75.58032227
185,"(833670.0912, 1181604.385)",WIFIMDE0012,Cerro Nutibara (Pueblito Paisa),16,16,1,CL 30 A # 55 - 64,833670.0912,1181604.385,6.23632812,-75.58032227
186,"(833663.2307000001, 1178039.6859)",WIFIMDE0290,Parque De Ruedas 4 Sur,15,15,1,CR 50 - CL 2 Sur,833663.2307,1178039.6859,6.20410156,-75.5803833
187,"(833629.7438, 1187883.1182)",WIFIMDE0309,Cancha Sintética el Polvorín,06,06,1,CL 95 - CR 76,833629.7438,1187883.1182,6.29309082,-75.58068848
188,"(833629.5017, 1179828.7877)",WIFIMDE0275,Parque San Pablo,15,15,1,CL 16 A - CR 52,833629.5017,1179828.7877,6.22027588,-75.58068848
189,"(833548.7345000004, 1189611.4597999998)",WIFIMDE0055,Centralidad Deportiva El Progreso N°2,06,06,1,CL 106 E # 82 A - 100,833548.7345,1189611.4598,6.30871582,-75.5814209
190,"(833541.5816, 1176999.9855)",WIFIMDE0296,Estación Aguacatala (interior estación),14,14,1,Av Regional - CL 12 Sur,833541.5816,1176999.9855,6.19470215,-75.58148193
191,"(833508.1365, 1187532.0531000001)",WIFIMDE0107,Parque Kennedy,06,06,1,CL 92 - CR 76 A,833508.1365,1187532.0531,6.28991699,-75.58178711
192,"(833454.1537, 1189341.4098999999)",WIFIMDE0312,Estación Metrocable El Progreso,06,06,1,CR 84 A - CL 104 A,833454.1537,1189341.4099,6.30627441,-75.58227539
193,"(833420.2225000001, 1184743.7589)",WIFIMDE0150,Cerro El Volador,07,07,1,CR 65 # 67 - 51,833420.2225,1184743.7589,6.26470947,-75.58258057
194,"(833420.1793000004, 1183461.0071999999)",WIFIMDE0213,Plazoleta Estación Metro Suramericana (exterior),11,11,1,CL 48 - CR 65,833420.1793,1183461.0072,6.25311279,-75.58258057
195,"(833406.7893, 1187045.9611)",WIFIMDE0267,Pista de patinaje La Quintana,07,07,1,CL 88 A -  CR 76,833406.7893,1187045.9611,6.28552246,-75.58270264
196,"(833372.8526000004, 1182421.3048)",WIFIMDE0119,Parque El Triángulo (Conquistadores),11,11,1,CL 40 - CR 65,833372.8526,1182421.3048,6.24371338,-75.58300781
197,"(833352.8038, 1188700.0376)",WIFIMDE0327,Placa Polideportiva los Lotes,06,06,1,CR 84 - CL 100 F,833352.8038,1188700.0376,6.30047608,-75.58319092
198,"(833318.9678000001, 1187018.9588000001)",WIFIMDE0093,Cedezo La Quintana,07,07,1,CR 80 #  82 - 60  (Parque Biblioteca Tomás Carrasquilla),833318.9678,1187018.9588,6.28527832,-75.58349609
199,"(833305.5063, 1188396.2295)",WIFIMDE0142,Centro de Salud Picachito,06,06,1,CR 83 B # 97 AA - 82,833305.5063,1188396.2295,6.29772949,-75.58361816
200,"(833231.0318, 1183899.8499)",WIFIMDE0122,Parque Suramericana Alta,11,11,1,CR 67 - CL4 9B,833231.0318,1183899.8499,6.25708008,-75.58428955
201,"(833217.6446, 1187241.7562)",WIFIMDE0300,Parque la Cruz,07,07,1,CL 89 B - CR 79,833217.6446,1187241.7562,6.28729248,-75.58441162
202,"(833217.4711000001, 1182576.5908)",WIFIMDE0118,Parque Los Mangos,11,11,1,CR 66 B - CQ 6,833217.4711,1182576.5908,6.24511719,-75.58441162
203,"(833197.3217, 1185736.2116)",WIFIMDE0194,Ampliación Parque La Pilarica,07,07,1,CL 74 - CR 73,833197.3217,1185736.2116,6.27368164,-75.58459473
204,"(833197.3243000006, 1185803.7248)",WIFIMDE0193,Parque La Pilarica,07,07,1,CL 74 - CR 73,833197.3243,1185803.7248,6.27429199,-75.58459473
205,"(833183.8558, 1186931.1965)",WIFIMDE0010,Casa de Justicia de Robledo,07,07,1,DG 85 # 79 - 173,833183.8558,1186931.1965,6.28448486,-75.5847168
206,"(833143.0657, 1180227.1326000001)",WIFIMDE0310,Cancha Trinidad,15,15,1,CL 23 - CR 65 E,833143.0657,1180227.1326,6.22387695,-75.58508301
207,"(833055.3106, 1182131.0096)",WIFIMDE0120,Parque Unicentro,11,11,1,CL 35 - CR 66,833055.3106,1182131.0096,6.24108887,-75.58587646
208,"(833041.7383, 1180625.4647)",WIFIMDE0252,Placa PoliDeportiva Trinidad,15,15,1,CL 26 - CR 65 D,833041.7383,1180625.4647,6.22747803,-75.58599854
209,"(832987.6123000002, 1178748.5986000001)",WIFIMDE0253,Parque Manzanares,15,15,1,CL 2 A - CR 55,832987.6123,1178748.5986,6.21051025,-75.58648682
210,"(832974.3976, 1185979.2678999999)",WIFIMDE0020,Institución Universitaria Pascual Bravo,07,07,1,CL 73 # 73 A - 226,832974.3976,1185979.2679,6.27587891,-75.58660889
211,"(832974.1258, 1179389.9751)",WIFIMDE0078,Terminal del Sur,15,15,1,CR 65 # 8 B - 91 ,832974.1258,1179389.9751,6.21630859,-75.58660889
212,"(832974.0840000006, 1178370.525)",WIFIMDE0028,Parque de Cristo Rey,15,15,1,CR 53 - CL 2 Sur,832974.084,1178370.525,6.20709229,-75.58660889
213,"(832933.7213, 1182576.602)",WIFIMDE0117,Parque Cancha Grande San Joaquín,11,11,1,CR 68 - CQ 3,832933.7213,1182576.602,6.24511719,-75.5869751
214,"(832920.4142, 1187417.3024)",WIFIMDE0094,Centro de Salud San Camilo,07,07,1,CR 88 # 80 - 150,832920.4142,1187417.3024,6.28887939,-75.58709717
215,"(832920.0835000001, 1179585.7656999999)",WIFIMDE0205,Plaza Gardel - Aeropuerto Olaya Herrera,15,15,1,CL 10 - CR 65,832920.0835,1179585.7657,6.21807861,-75.58709717
216,"(832899.7912, 1179032.1579)",WIFIMDE0166,Unidad Deportiva Campo Amor,15,15,1,CR 65 - CL 5,832899.7912,1179032.1579,6.21307373,-75.58728027
217,"(832852.5906, 1181206.0865)",WIFIMDE0053,Bolera Unidad Deportiva Andrés Escobar,16,16,1,CR 66 B # 30 – 26,832852.5906,1181206.0865,6.23272705,-75.58770752
218,"(832818.9227, 1183771.5913)",WIFIMDE0016,Coliseo Iván de Bedout,11,11,1,Unid. Deportiva Atanasio Girardot,832818.9227,1183771.5913,6.25592041,-75.58801269
219,"(832818.9108000005, 1183501.5384)",WIFIMDE0214,Plazoleta Estación Metro Estadio (exterior),11,11,1,CL 47 D - CR 70,832818.9108,1183501.5384,6.253479,-75.5880127
220,"(832798.6522, 1183704.0791)",WIFIMDE0013,Coliseo de Voleibol Yesid Santos,11,11,1,Unid. Deportiva Atanasio Girardot,832798.6522,1183704.0791,6.25531006,-75.5881958
221,"(832785.1532, 1183987.6352)",WIFIMDE0040,Pista de Atletismo Alfonso Galvis,11,11,1,Unid. Deportiva Atanasio Girardot,832785.1532,1183987.6352,6.25787353,-75.58831787
222,"(832778.3827, 1183656.8206000002)",WIFIMDE0014,Coliseo de Combate Guillermo Gaviria Correa,11,11,1,Unid. Deportiva Atanasio Girardot,832778.3827,1183656.8206,6.25488281,-75.58837891
223,"(832778.374, 1183461.0322)",WIFIMDE0215,"Plazoleta Estación Estadio, ampliación (exterior)",11,11,1,CL 47 D - CR 70,832778.374,1183461.0322,6.25311279,-75.58837891
224,"(832764.9089, 1184500.7368)",WIFIMDE0128,Parque Plan Parcial Invatex,11,11,1,CL 53 - CR 74,832764.9089,1184500.7368,6.26251221,-75.58850098
225,"(832764.6021, 1177641.3909)",WIFIMDE0148,Mascerca Guayabal,15,15,1,CR 52 # 9 Sur - 42,832764.6021,1177641.3909,6.20050049,-75.58850098
226,"(832764.7708, 1181422.1328)",WIFIMDE0048,Tiro Con Arco Unidad Deportiva Andrés Escobar,16,16,1,CR 66 B # 31 - 15 ,832764.7708,1181422.1328,6.23468018,-75.58850098
227,"(832751.2468, 1181158.8317)",WIFIMDE0041,Pista de Bicicross Antonio Roldán Betancur,16,16,1,CL 30 A 66 B - 71,832751.2468,1181158.8317,6.2322998,-75.58862305
228,"(832731.0971, 1183771.5953000002)",WIFIMDE0015,Coliseo de Gimnasia Jorge Hugo Giraldo,11,11,1,Unid. Deportiva Atanasio Girardot,832731.0971,1183771.5953,6.25592041,-75.58880615
229,"(832710.5548, 1177749.4146)",WIFIMDE0158,Centro de Salud Guayabal,15,15,1,CL 9 Sur # 52 - 42,832710.5548,1177749.4146,6.20147705,-75.58898926
230,"(832677.1000000003, 1184831.5557)",WIFIMDE0121,Parque de la Vida - Los Colores,11,11,1,CR 76A - CL 55,832677.1,1184831.5557,6.26550293,-75.58929443
231,"(832656.6531, 1180983.3016)",WIFIMDE0242,Pista de BMX Mariana Pajón,15,15,1,CR 69 B - CL 26 B,832656.6531,1180983.3016,6.23071289,-75.58947754
232,"(832629.7558, 1183683.8327000001)",WIFIMDE0043,Plazoleta de Banderas,11,11,1,Unid. Deportiva Atanasio Girardot,832629.7558,1183683.8327,6.25512695,-75.58972168
233,"(832609.5144000005, 1184230.691)",WIFIMDE0054,Diamante de Béisbol Luis Alberto Villegas,11,11,1,Unid. Deportiva Atanasio Girardot,832609.5144,1184230.691,6.2600708,-75.58990479
234,"(832575.5698000003, 1180780.7656999999)",WIFIMDE0060,Coliseo Carlos Mauro Hoyos,15,15,1,CR 69 B - CL 26 B,832575.5698,1180780.7657,6.22888184,-75.59020996
235,"(832508.1118, 1182887.1823)",WIFIMDE0123,Telecentro San Joaquín,11,11,1,CL 42 # 71 - 37,832508.1118,1182887.1823,6.24792481,-75.59082031
236,"(832487.8933, 1183879.628)",WIFIMDE0147,Centro de Servicios El Estadio,11,11,1,CL 48 # 73 - 10,832487.8933,1183879.628,6.25689697,-75.59100342
237,"(832454.1076000006, 1183744.6032)",WIFIMDE0017,Complejo Acuático,11,11,1,Unid. Deportiva Atanasio Girardot,832454.1076,1183744.6032,6.25567627,-75.59130859
238,"(832433.8928000003, 1184784.3081999999)",WIFIMDE0105,Centro Cultural Los Colores,11,11,1,CR 77 B # 53 - 26,832433.8928,1184784.3082,6.26507568,-75.5914917
239,"(832379.5859, 1179700.5635000002)",WIFIMDE0036,Aeroparque Juan Pablo Segundo,15,15,1,CR 70 # 16 - 04,832379.5859,1179700.5635,6.21911621,-75.59197998
240,"(832366.3520000002, 1185094.8726)",WIFIMDE0112,Parque 4 Vientos (Los Colores),11,11,1,CL 54 A - CR 77 C,832366.352,1185094.8726,6.2678833,-75.59210205
241,"(832312.4424, 1187660.3788)",WIFIMDE0278,Placa Polideportiva Romeral,07,07,1,CL 80 - CR 93 A  (CAI Aures),832312.4424,1187660.3788,6.29107666,-75.59259033
242,"(832264.7043, 1179234.7280000001)",WIFIMDE0057,Unidad Deportiva María Luisa Calle,15,15,1,CR 70 # 1 - 180,832264.7043,1179234.728,6.21490478,-75.59301758
243,"(832224.3873000003, 1183326.033)",WIFIMDE0113,Parque Lourdes,11,11,1,CL 45 D - CR 75,832224.3873,1183326.033,6.25189209,-75.59338379
244,"(832210.8396, 1182664.404)",WIFIMDE0116,Primer Parque de Laureles,11,11,1,TV 74 - CQ 3,832210.8396,1182664.404,6.24591065,-75.59350586
245,"(832190.6384, 1183879.6434)",WIFIMDE0058,"Velódromo Martín Emilio ""Cochise"" Rodríguez",11,11,1,CL 47 # 75 - 262,832190.6384,1183879.6434,6.25689697,-75.59368896
246,"(832068.9948, 1183191.0151)",WIFIMDE0114,Parque El Emperador,11,11,1,CR 75 entre CL 44A & CL 45B,832068.9948,1183191.0151,6.25067139,-75.5947876
247,"(832055.5023, 1183528.5821000002)",WIFIMDE0115,Parque Pinocho,11,11,1,CR 77 - CL 45E,832055.5023,1183528.5821,6.25372314,-75.59490967
248,"(831987.9258, 1183218.025)",WIFIMDE0153,CAV La América,11,11,1,CL 44 A # 75 - 104,831987.9258,1183218.025,6.25091553,-75.59552002
249,"(831947.5289000003, 1185560.7371)",WIFIMDE0202,Centralidad El Pesebre,13,13,1,CL 59 - CR 81 - 25,831947.5289,1185560.7371,6.27209473,-75.59588623
250,"(831934.1399, 1187619.8919000002)",WIFIMDE0307,Placa Polideportiva Don Bosco,07,07,1,CR 96 A # 78 AA - 06,831934.1399,1187619.8919,6.29071045,-75.5960083
251,"(831913.5033000004, 1181401.923)",WIFIMDE0149,Mascerca Belén,16,16,1,CR 76 # 32 -74,831913.5033,1181401.923,6.23449707,-75.59619141
252,"(831913.7734, 1185938.8132000002)",WIFIMDE0146,Centro de Servicios Robledo,07,07,1,CL 64 A # 85 - 19 (Inspección 7 A),831913.7734,1185938.8132,6.27551269,-75.59619141
253,"(831900.2647000004, 1185979.3220000002)",WIFIMDE0171,Parque de Robledo,07,07,1,CL 65 - CR 86,831900.2647,1185979.322,6.27587891,-75.59631348
254,"(831845.9290000005, 1181179.1334000002)",WIFIMDE0178,Parque Belén,16,16,1,CR 76 - CL 31,831845.929,1181179.1334,6.23248291,-75.59680176
255,"(831744.5269000002, 1180206.9488)",WIFIMDE0091,CEDEZO Belén,16,16,1,CR 76 # 18 A -19,831744.5269,1180206.9488,6.22369385,-75.59771729
256,"(831670.4079000001, 1183346.3195)",WIFIMDE0162,Aula Ambiental Plaza La América,12,12,1,CL 45 # 79 A – 100,831670.4079,1183346.3195,6.2520752,-75.59838867
257,"(831656.7343, 1180807.8223)",WIFIMDE0086,UPSS Belén,16,16,1,CL 28 # 77 - 124 ,831656.7343,1180807.8223,6.22912598,-75.59851074
258,"(831447.4153000006, 1182617.1911)",WIFIMDE0109,Mall Laureles,11,11,1,CR 80 - CL 37,831447.4153,1182617.1911,6.2454834,-75.60040283
259,"(831426.9038, 1179011.9849999999)",WIFIMDE0164,Desarrollo Integral Belén Rincón,16,16,1,CL 1 C - CR 76 A,831426.9038,1179011.985,6.21289063,-75.60058594
260,"(831339.2945, 1182245.8755)",WIFIMDE0129,Parque La Matea,11,11,1,CL 34 C - CR 80 B,831339.2945,1182245.8755,6.24212646,-75.60137939
261,"(831325.8887, 1183771.6757999999)",ACP-2121516,Parque Principal La Floresta,12,12,1,TV 45D #  85 - 27,831325.8887,1183771.6758,6.25592041,-75.60150146
262,"(831217.9272, 1185608.0437000003)",WIFIMDE0270,Parque Infantil Colinas de Calasanz,SN01,SN01,1,CL 57 D - CR 86 B,831217.9272,1185608.0437,6.27252197,-75.60247803
263,"(831095.8372, 1178944.495)",WIFIMDE0100,Centro de Salud Belén Rincón,16,16,1,CL 2 B #  79- 10,831095.8372,1178944.495,6.21228027,-75.60357666
264,"(831062.4316, 1184034.9963)",WIFIMDE0272,Estación Metro Santa Lucía (exterior),12,12,1,CL 47 DD - CR 87,831062.4316,1184034.9963,6.25830078,-75.60388184
265,"(831028.6906, 1184541.3482)",WIFIMDE0155,Centro de Salud Santa Rosa de Lima,12,12,1,CL 49DD  #  87 - 11,831028.6906,1184541.3482,6.26287842,-75.60418701
266,"(830974.5243000006, 1182948.0396)",WIFIMDE0271,Parque El Manicomio,12,12,1,CL 42 B - CR 84,830974.5243,1182948.0396,6.24847412,-75.60467529
267,"(830961.0801000001, 1183839.2155)",WIFIMDE0285,Unidad Deportiva La Floresta,12,12,1,TV 47 A - CR 87 B,830961.0801,1183839.2155,6.25653076,-75.60479736
268,"(830927.4604000004, 1185918.6261)",WIFIMDE0258,Placa PoliDeportiva Blanquizal,13,13,1,CR 92 DD - CL 58 D,830927.4604,1185918.6261,6.27532959,-75.60510254
269,"(830873.4085, 1185824.1117)",WIFIMDE0124,Centro de Salud Manantial de Vida,13,13,1,CL 57 F # 92 CC - 107,830873.4085,1185824.1117,6.2744751,-75.60559082
270,"(830785.173, 1180585.0905)",WIFIMDE0061,Desarrollo Integral Belén Zafra,16,16,1,CR 83 C -  CL 22,830785.173,1180585.0905,6.22711182,-75.60638428
271,"(830758.4323, 1184170.0461)",WIFIMDE0008,Casa de la Cultura Los Alcázares,13,13,1,CL 48 B #  88 A - 62,830758.4323,1184170.0461,6.25952148,-75.60662842
272,"(830751.6744, 1184143.0413000002)",WIFIMDE0023,Mascerca La Floresta,13,13,1,CR 89 B # 48 A - 37,830751.6744,1184143.0413,6.25927734,-75.60668945
273,"(830663.8872000002, 1184608.8897000002)",WIFIMDE0249,Placa PoliDeportiva Metropolitano,13,13,1,CR 96 - CL 49 C,830663.8872,1184608.8897,6.26348877,-75.60748291
274,"(830650.1588, 1181935.3662999999)",WIFIMDE0111,Parque La Castellana,11,11,1,CL 33 - CR 83 B,830650.1588,1181935.3663,6.23931885,-75.60760498
275,"(830650.0958000002, 1181158.9638999999)",WIFIMDE0276,Parque Quimbaya,16,16,1,CL 31 - CR 84,830650.0958,1181158.9639,6.2322998,-75.60760498
276,"(830629.8149, 1181003.6851)",WIFIMDE0167,Parque Principal Belén Los Alpes,16,16,1,CL 29 B - CR 84,830629.8149,1181003.6851,6.230896,-75.60778809
277,"(830596.1847, 1182840.0482)",WIFIMDE0099,Unidad Deportiva Barrio Cristóbal,12,12,1,CR 86 A - CL 40,830596.1847,1182840.0482,6.24749756,-75.60809326
278,"(830542.2439000005, 1184122.8043)",WIFIMDE0273,Cancha La Campiña Pradera Baja,13,13,1,CR 91 A # 48 C - 25,830542.2439,1184122.8043,6.25909424,-75.60858154
279,"(830393.2673, 1180031.514)",WIFIMDE0254,Cancha de Fútbol Arenilla Buena Vista,16,16,1,CR 88 # 18 - 16,830393.2673,1180031.514,6.22210693,-75.60992432
280,"(830130.1042, 1183704.2576000001)",WIFIMDE0246,Parque Campo Alegre (La Jota),12,12,1,CR 95 - CL 44 (Av San Juan),830130.1042,1183704.2576,6.25531006,-75.61230469
281,"(830042.2805, 1183724.5196000002)",WIFIMDE0203,CEDEZO San Javier,12,12,1,CL 44 # 95 - 63,830042.2805,1183724.5196,6.25549316,-75.61309814
282,"(830022.0236, 1183839.294)",WIFIMDE0219,Estación Metrocable San Javier J (interior),13,13,1,CL 45 - CR 98,830022.0236,1183839.294,6.25653076,-75.61328125
283,"(830022.2745000003, 1186560.0779)",WIFIMDE0074,UPSS Nuevo Occidente,60,60,2,CR 102 C # 63 B - 65,830022.2745,1186560.0779,6.28112793,-75.61328125
284,"(829994.4903, 1178303.2103)",WIFIMDE0182,Cancha de Arena El Manzanillo,70,70,2,CL 5 A S # 89 - 220 (Vía Vereda el Manzanillo),829994.4903,1178303.2103,6.20648193,-75.61352539
285,"(829974.6728, 1183191.1712)",WIFIMDE0198,Placa PoliDeportiva La Cristóbal,12,12,1,CR 94 - CL 37,829974.6728,1183191.1712,6.25067139,-75.6137085
286,"(829974.6278, 1182705.0758)",WIFIMDE0247,Parque Los Tanques,12,12,1,CR 89A - CL 35A,829974.6278,1182705.0758,6.24627686,-75.6137085
287,"(829940.7329000001, 1181469.5866)",WIFIMDE0308,Cancha Las Violetas,16,16,1,CL 31 C- CR 89 C,829940.7329,1181469.5866,6.23510742,-75.61401367
288,"(829934.4507, 1186533.0807000003)",WIFIMDE0220,Plazoleta Estación Metrocable La Aurora (exterior),60,60,2,CL 64 - CR 103 C,829934.4507,1186533.0807,6.28088379,-75.61407471
289,"(829900.6796, 1186600.5971)",WIFIMDE0287,Plazoleta Villa Suramericana (Frente La Aurora),60,60,2,CL 64 - CR 104,829900.6796,1186600.5971,6.28149414,-75.61437988
290,"(829886.9133, 1183900.0685)",WIFIMDE0216,Plazoleta Estación Metro San Javier B (exterior),13,13,1,CL 45 - CR 99,829886.9133,1183900.0685,6.25708008,-75.61450195
291,"(829799.1923, 1184987.0400999999)",WIFIMDE0140,Centro de Salud La Quiebra,13,13,1,CL 48 DD # 99 EE - 30,829799.1923,1184987.0401,6.26690674,-75.61529541
292,"(829765.2218000002, 1182995.4024999999)",WIFIMDE0033,Parque del Ajedrez,12,12,1,CL 35B - CR 93,829765.2218,1182995.4025,6.24890137,-75.61560059
293,"(829697.6457000002, 1182819.8746)",WIFIMDE0049,CAV Belencito,13,13,1,CR 92 # 34 D - 93,829697.6457,1182819.8746,6.24731445,-75.61621094
294,"(829522.1229, 1184122.8976)",WIFIMDE0248,Desarrollo Integral el Socorro,13,13,1,CR 102 - CL 47 C 3,829522.1229,1184122.8976,6.25909424,-75.61779785
295,"(829380.5034, 1186560.1402)",WIFIMDE0063,Exteriores Ludoteca Casa San Martín,60,60,2,CR 117 E # 63 C - 63,829380.5034,1186560.1402,6.28112793,-75.61907959
296,"(829380.4964, 1186492.6269)",WIFIMDE0236,Placa PoliDeportiva San Martín,60,60,2,CR 64 B # 106 - 60,829380.4964,1186492.6269,6.28051758,-75.61907959
297,"(829312.5441, 1182684.8868)",WIFIMDE0157,Centro de Salud Villa Laura,13,13,1,CR 105 B # 34 BB - 80,829312.5441,1182684.8868,6.24609375,-75.61968994
298,"(829299.4185, 1186377.8629)",ACP-2076975,Centro de Servicios Nuevo Occidente (Casa Lusitania),60,60,2,CL 63 # 108 BB - 06,829299.4185,1186377.8629,6.27947998,-75.61981201
299,"(829245.08, 1183589.5714000002)",WIFIMDE0085,UPSS San Javier,13,13,1,CL 40 # 105 - 103 ,829245.08,1183589.5714,6.25427246,-75.62030029
300,"(829211.3173, 1183744.8554)",WIFIMDE0052,Unidad Deportiva Antonio Nariño,13,13,1,CR 105 - CL 42,829211.3173,1183744.8554,6.25567627,-75.62060547
301,"(829103.1363000005, 1182927.9566000002)",WIFIMDE0199,Escaleras Eléctricas (Viaducto),13,13,1,CR 110 - CL 34 CC (El corazón),829103.1363,1182927.9566,6.24829102,-75.62158203
302,"(829069.3590000004, 1182948.2142)",WIFIMDE0200,"Escaleras Eléctricas (Tramos 1,2 Y 3)",13,13,1,CR 110 - CL 35F,829069.359,1182948.2142,6.24847412,-75.62188721
303,"(829055.8427, 1182907.7077000001)",WIFIMDE0201,"Escaleras Eléctricas (Tramos 4, 5 Y 6)",13,13,1,CR 110 - CL 35F,829055.8427,1182907.7077,6.24810791,-75.62200928
304,"(829035.2670000001, 1180072.1535999998)",WIFIMDE0183,La Esperanza,70,70,2,CR 100 - CL 16,829035.267,1180072.1536,6.22247314,-75.62219238
305,"(829001.7999, 1182948.2215)",WIFIMDE0250,Viaducto Tramo Dos,13,13,1,CR 111 # 34 DD - 01,829001.7999,1182948.2215,6.24847412,-75.62249756
306,"(828981.5863, 1183441.0705)",WIFIMDE0070,Casa de Justicia 20 de Julio,13,13,1,CL 39 C # 109 - 24,828981.5863,1183441.0705,6.25292969,-75.62268066
307,"(828947.7460000004, 1182887.4655)",WIFIMDE0274,Viaducto tramo 2 parte alta,13,13,1,CR 111 - CL 34 D,828947.746,1182887.4655,6.2479248,-75.62298584
308,"(828589.5019, 1181334.7014000001)",WIFIMDE0185,Placa de Arenilla Aguas Frías,70,70,2,CL 31 AA # 107 - 38,828589.5019,1181334.7014,6.23388672,-75.6262207
309,"(828427.2136000001, 1180139.736)",ACP-1944582,Parque Principal de Altavista,70,70,2,CL 18 # 105 - 69,828427.2136,1180139.736,6.2230835,-75.62768555
310,"(828359.6464, 1180099.2360999999)",WIFIMDE0002,Casa de Gobierno Altavista,70,70,2,CL 18 # 105 - 69,828359.6464,1180099.2361,6.22271729,-75.6282959
311,"(828278.9476, 1183191.3525999999)",WIFIMDE0092,Centro de Salud La Esperanza,13,13,1,CR 118 # 39 A - 13 ,828278.9476,1183191.3526,6.25067139,-75.62902832
312,"(828049.5440000003, 1185540.8418999999)",WIFIMDE0169,Centro de Salud La Loma,60,60,2,CL 55 A # 125 A - 05,828049.544,1185540.8419,6.27191162,-75.63110352
313,"(827664.5652000004, 1186222.7752)",WIFIMDE0098,CEDEZO San Cristóbal,60,60,2,CL 62 #  129 - 9,827664.5652,1186222.7752,6.27807617,-75.63458252
314,"(827630.829, 1186533.3406)",WIFIMDE0279,Unidad Deportiva San Cristóbal,60,60,2,CR 130 B - CL 64,827630.829,1186533.3406,6.28088379,-75.6348877
315,"(827509.1826000003, 1186182.288)",WIFIMDE0304,Parque Principal San Cristóbal,60,60,2,CR 131 -  CL 62,827509.1826,1186182.288,6.27770996,-75.63598633
316,"(827495.6688, 1186162.0358)",WIFIMDE0004,Casa de Gobierno San Cristóbal,60,60,2,CR 131 #  60 – 59 (Parque principal),827495.6688,1186162.0358,6.27752686,-75.6361084
317,"(827339.8807000002, 1183191.4742)",WIFIMDE0184,Placa PoliDeportiva Los Tanques,70,70,2,CL 34 B # 130 MB-148,827339.8807,1183191.4742,6.25067139,-75.63751221
318,"(827299.7668, 1186222.8245)",WIFIMDE0125,UPSS San Cristóbal,60,60,2,CL 62 D # 133 - 15,827299.7668,1186222.8245,6.27807617,-75.63787842
319,"(826744.1351, 1174853.6731000002)",WIFIMDE0280,Zona Verde El Limonar No. 2,80,80,2,CR 64 B # 4 D - 27,826744.1351,1174853.6731,6.17529297,-75.6428833
320,"(826596.4283, 1181159.4324)",WIFIMDE0255,Cancha Aguas Frías Parte Alta,70,70,2,CL 34 AA - Belén Aguas Frias,826596.4283,1181159.4324,6.2322998,-75.64422607
321,"(826521.126, 1174630.9128)",WIFIMDE0145,Corregiduría El Limonar,80,80,2,CL 56 A Sur  # 63 B - 04,826521.126,1174630.9128,6.17327881,-75.64489746
322,"(825534.8494, 1175981.3355)",WIFIMDE0251,Cancha Sintética Horizontes,80,80,2,CL 40 Sur # 75 B - 81,825534.8494,1175981.3355,6.18548584,-75.65380859
323,"(825534.6869, 1175009.1448)",WIFIMDE0138,Cedezo San Antonio de Prado,80,80,2,CL 50 E SUR # 75 A - 20,825534.6869,1175009.1448,6.17669678,-75.65380859
324,"(825359.1221, 1175670.8045)",ACP-2133720,Parque principal San Antonio de Prado,80,80,2,CR 9 - CL 10 ,825359.1221,1175670.8045,6.18267822,-75.65539551
325,"(825291.5547, 1175670.816)",WIFIMDE0003,Casa de Gobierno San Antonio de Prado,80,80,2,CR 9 # 10 - 36,825291.5547,1175670.816,6.18267822,-75.65600586
326,"(824109.1372000001, 1175738.5452999999)",WIFIMDE0281,Placa polideportiva potrerito,80,80,2,Vereda Poterito,824109.1372,1175738.5453,6.18328857,-75.66668701
327,"(823987.8036000005, 1177223.8602999998)",WIFIMDE0282,Placa Polideportiva Montañita,80,80,2,Vereda Montañita,823987.8036,1177223.8603,6.19671631,-75.66778564
328,"(821376.9497000003, 1193549.1305)",WIFIMDE0005,Casa de Gobierno San Sebastián de Palmitas,50,50,2,CL 20 #  35 – 114 (Vía Palmitas KM 2),821376.9497,1193549.1305,6.34429932,-75.69140625
329,"(821343.1763, 1193549.1386000002)",ACP-2116276,Parque San Sebastián de Palmitas,50,50,2,"Vía Palmitas, Rural Palmitas",821343.1763,1193549.1386,6.34429932,-75.69171143
330,"(819985.4285, 1193326.6867)",WIFIMDE0277,Placa Polideportiva Vereda La Aldea,50,50,2,CR 219 # 134 -26 (Vereda la Aldea Parte Baja),819985.4285,1193326.6867,6.34228516,-75.70397949
331,"(819924.0066, 1190983.9933000002)",WIFIMDE0059,Centralidad Vereda La Suiza,50,50,2,Rural Vereda la Suiza,819924.0066,1190983.9933,6.32110596,-75.70452881
332,"(842762.0118000001, 1178659.6121)",ACP-2126086,Parque Santa Elena,90,90,2,CL 10 A- CR 40 E,842762.0118,1178659.6121,6.209702,-75.498188
